ONEWEB-0319             
1 49105U 21075AG  25149.54387290  .00000087  00000+0  19118-3 0  9990
2 49105  87.9065  82.2700 0002298  70.3180 289.8199 13.17649117183081
ONEWEB-0323             
1 49106U 21075AH  25149.18656944 -.00000297  00000+0 -86215-3 0  9993
2 49106  87.8886  67.0294 0002452  64.0049 296.1331 13.12444330184183
ONEWEB-0329             
1 49107U 21075AJ  25149.24857841  .00000072  00000+0  15135-3 0  9992
2 49107  87.9065  82.3337 0002225  76.5120 283.6259 13.17649501183022
ONEWEB-0330             
1 49108U 21075AK  25149.09838322 -.00000006  00000+0 -48103-4 0  9990
2 49108  87.9066  82.3662 0002249  81.2504 278.8882 13.17648019183043
ONEWEB-0292             
1 49186U 21083A   25149.38283394  .00000123  00000+0  30301-3 0  9998
2 49186  87.8988  36.5377 0001864  74.1961 285.9373 13.13471234180540
ONEWEB-0303             
1 49187U 21083B   25148.99048212  .00000067  00000+0  13754-3 0  9993
2 49187  87.9158  51.8088 0002010  73.0233 287.1119 13.18685460179345
ONEWEB-0306             
1 49188U 21083C   25149.13274489  .00000152  00000+0  35195-3 0  9996
2 49188  87.9161  51.7654 0001913  84.3733 275.7617 13.18685346179405
ONEWEB-0307             
1 49189U 21083D   25149.37690753  .00000285  00000+0  74440-3 0  9992
2 49189  87.8988  36.5426 0002006  89.8770 270.2589 13.13468936180549
